{
  "type": "FeatureCollection",
  "features": [
    {
      "type": "Feature",
      "properties": {
        "norad_id": 55973,
        "name": "TIANMU-1 03",
        "group": "weather",
        "lat": 46.79835791447973,
        "lon": 154.89269101762264,
        "alt_km": 435.8783097857531,
        "timestamp": "2025-12-25T22:42:16.639833+00:00",
        "meta_object_name": "TIANMU-1 03",
        "meta_object_id": "2023-039A",
        "meta_epoch": "2025-12-25T17:49:32.623680",
        "meta_mean_motion": 15.41302792,
        "meta_eccentricity": 0.000375,
        "meta_inclination": 97.5115,
        "meta_ra_of_asc_node": 162.7607,
        "meta_arg_of_pericenter": 22.9464,
        "meta_mean_anomaly": 337.1949,
        "meta_ephemeris_type": 0,
        "meta_classification_type": "U",
        "meta_norad_cat_id": 55973,
        "meta_element_set_no": 999,
        "meta_rev_at_epoch": 15406,
        "meta_bstar": 0.00040361,
        "meta_mean_motion_dot": 0.00016741,
        "meta_mean_motion_ddot": 0,
        "tle_line1": "1 55973U 23039A   25359.74273870  .00016741  00000+0  40361-3 0  9993",
        "tle_line2": "2 55973  97.5115 162.7607 0003750  22.9464 337.1949 15.41302792154066"
      },
      "geometry": {
        "type": "Point",
        "coordinates": [
          154.89269101762264,
          46.79835791447973
        ]
      }
    },
    {
      "type": "Feature",
      "properties": {
        "norad_id": 55974,
        "name": "TIANMU-1 04",
        "group": "weather",
        "lat": 2.328410428980215,
        "lon": -17.537341737482546,
        "alt_km": 446.86265347207245,
        "timestamp": "2025-12-25T22:42:16.639844+00:00",
        "meta_object_name": "TIANMU-1 04",
        "meta_object_id": "2023-039B",
        "meta_epoch": "2025-12-25T17:15:49.444992",
        "meta_mean_motion": 15.41645821,
        "meta_eccentricity": 0.0004347,
        "meta_inclination": 97.5046,
        "meta_ra_of_asc_node": 161.9225,
        "meta_arg_of_pericenter": 16.0465,
        "meta_mean_anomaly": 344.0918,
        "meta_ephemeris_type": 0,
        "meta_classification_type": "U",
        "meta_norad_cat_id": 55974,
        "meta_element_set_no": 999,
        "meta_rev_at_epoch": 15406,
        "meta_bstar": 0.00039,
        "meta_mean_motion_dot": 0.0001636,
        "meta_mean_motion_ddot": 0,
        "tle_line1": "1 55974U 23039B   25359.71932228  .00016360  00000+0  39000-3 0  9995",
        "tle_line2": "2 55974  97.5046 161.9225 0004347  16.0465 344.0918 15.41645821154061"
      },
      "geometry": {
        "type": "Point",
        "coordinates": [
          -17.537341737482546,
          2.328410428980215
        ]
      }
    },
    {
      "type": "Feature",
      "properties": {
        "norad_id": 55975,
        "name": "TIANMU-1 05",
        "group": "weather",
        "lat": -11.270367489752235,
        "lon": -18.85789408829317,
        "alt_km": 449.1161226992581,
        "timestamp": "2025-12-25T22:42:16.639855+00:00",
        "meta_object_name": "TIANMU-1 05",
        "meta_object_id": "2023-039C",
        "meta_epoch": "2025-12-25T17:12:11.163168",
        "meta_mean_motion": 15.41258537,
        "meta_eccentricity": 0.0003888,
        "meta_inclination": 97.5093,
        "meta_ra_of_asc_node": 162.4128,
        "meta_arg_of_pericenter": 42.4532,
        "meta_mean_anomaly": 317.7015,
        "meta_ephemeris_type": 0,
        "meta_classification_type": "U",
        "meta_norad_cat_id": 55975,
        "meta_element_set_no": 999,
        "meta_rev_at_epoch": 15404,
        "meta_bstar": 0.00038796,
        "meta_mean_motion_dot": 0.00016064,
        "meta_mean_motion_ddot": 0,
        "tle_line1": "1 55975U 23039C   25359.71679587  .00016064  00000+0  38796-3 0  9994",
        "tle_line2": "2 55975  97.5093 162.4128 0003888  42.4532 317.7015 15.41258537154046"
      },
      "geometry": {
        "type": "Point",
        "coordinates": [
          -18.85789408829317,
          -11.270367489752235
        ]
      }
    },
    {
      "type": "Feature",
      "properties": {
        "norad_id": 55976,
        "name": "TIANMU-1 06",
        "group": "weather",
        "lat": 11.829735608713781,
        "lon": -15.292084914511118,
        "alt_km": 444.43887398857623,
        "timestamp": "2025-12-25T22:42:16.639866+00:00",
        "meta_object_name": "TIANMU-1 06",
        "meta_object_id": "2023-039D",
        "meta_epoch": "2025-12-25T17:18:19.868256",
        "meta_mean_motion": 15.41697035,
        "meta_eccentricity": 0.0004147,
        "meta_inclination": 97.5104,
        "meta_ra_of_asc_node": 162.893,
        "meta_arg_of_pericenter": 36.227,
        "meta_mean_anomaly": 323.9257,
        "meta_ephemeris_type": 0,
        "meta_classification_type": "U",
        "meta_norad_cat_id": 55976,
        "meta_element_set_no": 999,
        "meta_rev_at_epoch": 15406,
        "meta_bstar": 0.00038891,
        "meta_mean_motion_dot": 0.00016341,
        "meta_mean_motion_ddot": 0,
        "tle_line1": "1 55976U 23039D   25359.72106329  .00016341  00000+0  38891-3 0  9999",
        "tle_line2": "2 55976  97.5104 162.8930 0004147  36.2270 323.9257 15.41697035154063"
      },
      "geometry": {
        "type": "Point",
        "coordinates": [
          -15.292084914511118,
          11.829735608713781
        ]
      }
    },
    {
      "type": "Feature",
      "properties": {
        "norad_id": 56232,
        "name": "FENGYUN 3G",
        "group": "weather",
        "lat": -23.342704679512646,
        "lon": 0.5486634976719389,
        "alt_km": 413.1990994598036,
        "timestamp": "2025-12-25T22:42:16.639877+00:00",
        "meta_object_name": "FENGYUN 3G",
        "meta_object_id": "2023-055A",
        "meta_epoch": "2025-12-25T17:09:48.146112",
        "meta_mean_motion": 15.52086652,
        "meta_eccentricity": 0.0003945,
        "meta_inclination": 49.9929,
        "meta_ra_of_asc_node": 160.4863,
        "meta_arg_of_pericenter": 291.3548,
        "meta_mean_anomaly": 68.6997,
        "meta_ephemeris_type": 0,
        "meta_classification_type": "U",
        "meta_norad_cat_id": 56232,
        "meta_element_set_no": 999,
        "meta_rev_at_epoch": 15304,
        "meta_bstar": 0.00049973,
        "meta_mean_motion_dot": 0.00030428,
        "meta_mean_motion_ddot": 0,
        "tle_line1": "1 56232U 23055A   25359.71514058  .00030428  00000+0  49973-3 0  9999",
        "tle_line2": "2 56232  49.9929 160.4863 0003945 291.3548  68.6997 15.52086652153041"
      },
      "geometry": {
        "type": "Point",
        "coordinates": [
          0.5486634976719389,
          -23.342704679512646
        ]
      }
    },
    {
      "type": "Feature",
      "properties": {
        "norad_id": 57166,
        "name": "METEOR-M2 3",
        "group": "weather",
        "lat": -50.12382569309385,
        "lon": -137.22784505221375,
        "alt_km": 818.8939500167962,
        "timestamp": "2025-12-25T22:42:16.639891+00:00",
        "meta_object_name": "METEOR-M2 3",
        "meta_object_id": "2023-091A",
        "meta_epoch": "2025-12-25T18:15:03.544416",
        "meta_mean_motion": 14.24027615,
        "meta_eccentricity": 0.0003223,
        "meta_inclination": 98.6361,
        "meta_ra_of_asc_node": 53.0713,
        "meta_arg_of_pericenter": 327.9658,
        "meta_mean_anomaly": 32.1324,
        "meta_ephemeris_type": 0,
        "meta_classification_type": "U",
        "meta_norad_cat_id": 57166,
        "meta_element_set_no": 999,
        "meta_rev_at_epoch": 12983,
        "meta_bstar": 2.1146e-05,
        "meta_mean_motion_dot": 5e-08,
        "meta_mean_motion_ddot": 0,
        "tle_line1": "1 57166U 23091A   25359.76045769  .00000005  00000+0  21146-4 0  9990",
        "tle_line2": "2 57166  98.6361  53.0713 0003223 327.9658  32.1324 14.24027615129839"
      },
      "geometry": {
        "type": "Point",
        "coordinates": [
          -137.22784505221375,
          -50.12382569309385
        ]
      }
    },
    {
      "type": "Feature",
      "properties": {
        "norad_id": 57399,
        "name": "TIANMU-1 07",
        "group": "weather",
        "lat": -39.43488100719102,
        "lon": 55.544132500970626,
        "alt_km": 487.4061033676553,
        "timestamp": "2025-12-25T22:42:16.639902+00:00",
        "meta_object_name": "TIANMU-1 07",
        "meta_object_id": "2023-101A",
        "meta_epoch": "2025-12-25T18:09:51.043392",
        "meta_mean_motion": 15.28254782,
        "meta_eccentricity": 0.000497,
        "meta_inclination": 97.2856,
        "meta_ra_of_asc_node": 49.3193,
        "meta_arg_of_pericenter": 47.9681,
        "meta_mean_anomaly": 312.1981,
        "meta_ephemeris_type": 0,
        "meta_classification_type": "U",
        "meta_norad_cat_id": 57399,
        "meta_element_set_no": 999,
        "meta_rev_at_epoch": 13514,
        "meta_bstar": 0.0002909,
        "meta_mean_motion_dot": 7.939e-05,
        "meta_mean_motion_ddot": 0,
        "tle_line1": "1 57399U 23101A   25359.75684078  .00007939  00000+0  29090-3 0  9999",
        "tle_line2": "2 57399  97.2856  49.3193 0004970  47.9681 312.1981 15.28254782135149"
      },
      "geometry": {
        "type": "Point",
        "coordinates": [
          55.544132500970626,
          -39.43488100719102
        ]
      }
    }
  ]
}